STARLINK-36582          
1 67599U 26018L   26043.91670139 -.00021483  00000+0 -11158-3 0  9992
2 67599  97.2849 108.4775 0000937  88.8093  12.1808 15.80837736  3476
STARLINK-36640          
1 67600U 26018M   26043.91670139  .00017372  00000+0  11721-3 0  9991
2 67600  97.2842 108.4705 0001535  75.0760  10.5635 15.75167947  3372
STARLINK-36635          
1 67601U 26018N   26043.91670139 -.00030801  00000+0 -16037-3 0  9991
2 67601  97.2851 108.4787 0001200  95.2309  10.7944 15.80850961  3371
STARLINK-36631          
1 67602U 26018P   26043.91670139 -.00035031  00000+0 -18269-3 0  9991
2 67602  97.2849 108.4846 0001539 104.7243  14.8446 15.80837213  3369
STARLINK-36626          
1 67603U 26018Q   26043.91670139  .00002323  00000+0  12864-4 0  9994
2 67603  97.2849 108.4919 0001564  67.5312  70.0369 15.80818741  3365
STARLINK-36605          
1 67604U 26018R   26043.91670139 -.01988886  00000+0 -13976-1 0  9997
2 67604  97.2846 108.4874 0001894  61.7591  65.8799 15.77395550  3367
STARLINK-36281          
1 67605U 26018S   26043.91670139  .00009945  00000+0  52575-4 0  9996
2 67605  97.2852 108.4860 0001554  86.7628  39.8919 15.80825816  3419
STARLINK-35843          
1 67606U 26018T   26043.91670139 -.01027826  00000+0 -59379-2 0  9995
2 67606  97.2853 108.4925 0001960 103.4185  39.7667 15.81158883  3423
STARLINK-36351          
1 67607U 26018U   26043.91670139  .00020069  00000+0  10540-3 0  9993
2 67607  97.2850 108.4967 0000561 144.6438   3.6842 15.80791533  3420
STARLINK-36411          
1 67608U 26018V   26043.91670139 -.00036760  00000+0 -19165-3 0  9993
2 67608  97.2846 108.4972 0001388  83.1211  72.8705 15.80852613  3418
STARLINK-36312          
1 67609U 26018W   26043.91670139 -.00006333  00000+0 -32293-4 0  9995
2 67609  97.2846 108.5010 0001441  73.2294  89.5158 15.80851350  3429
STARLINK-36387          
1 67610U 26018X   26043.91670139  .00022390  00000+0  11733-3 0  9991
2 67610  97.2845 108.5033 0001399  94.6609  76.2958 15.80816346  3421
