CCSDS_OMM_VERS = 2.0
CREATION_DATE  = 
ORIGINATOR     = 

OBJECT_NAME    = STARLINK-36582
OBJECT_ID      = 2026-018L
CENTER_NAME    = EARTH
REF_FRAME      = TEME
TIME_SYSTEM    = UTC
MEAN_ELEMENT_THEORY = SGP/SGP4

EPOCH          = 2026-02-12T22:00:03.000096
MEAN_MOTION    = 15.80837736
ECCENTRICITY   = .00009375
INCLINATION    = 97.2849
RA_OF_ASC_NODE = 108.4775
ARG_OF_PERICENTER = 88.8093
MEAN_ANOMALY   = 12.1808

EPHEMERIS_TYPE = 0
CLASSIFICATION_TYPE = U
NORAD_CAT_ID   = 67599
ELEMENT_SET_NO = 999
REV_AT_EPOCH   = 347
BSTAR          = -.11158099E-3
MEAN_MOTION_DOT = -.21483E-3
MEAN_MOTION_DDOT = 0

CCSDS_OMM_VERS = 2.0
CREATION_DATE  = 
ORIGINATOR     = 

OBJECT_NAME    = STARLINK-36640
OBJECT_ID      = 2026-018M
CENTER_NAME    = EARTH
REF_FRAME      = TEME
TIME_SYSTEM    = UTC
MEAN_ELEMENT_THEORY = SGP/SGP4

EPOCH          = 2026-02-12T22:00:03.000096
MEAN_MOTION    = 15.75167947
ECCENTRICITY   = .00015357
INCLINATION    = 97.2842
RA_OF_ASC_NODE = 108.4705
ARG_OF_PERICENTER = 75.0760
MEAN_ANOMALY   = 10.5635

EPHEMERIS_TYPE = 0
CLASSIFICATION_TYPE = U
NORAD_CAT_ID   = 67600
ELEMENT_SET_NO = 999
REV_AT_EPOCH   = 337
BSTAR          = .11720903E-3
MEAN_MOTION_DOT = .17372E-3
MEAN_MOTION_DDOT = 0

CCSDS_OMM_VERS = 2.0
CREATION_DATE  = 
ORIGINATOR     = 

OBJECT_NAME    = STARLINK-36635
OBJECT_ID      = 2026-018N
CENTER_NAME    = EARTH
REF_FRAME      = TEME
TIME_SYSTEM    = UTC
MEAN_ELEMENT_THEORY = SGP/SGP4

EPOCH          = 2026-02-12T22:00:03.000096
MEAN_MOTION    = 15.80850961
ECCENTRICITY   = .00012002
INCLINATION    = 97.2851
RA_OF_ASC_NODE = 108.4787
ARG_OF_PERICENTER = 95.2309
MEAN_ANOMALY   = 10.7944

EPHEMERIS_TYPE = 0
CLASSIFICATION_TYPE = U
NORAD_CAT_ID   = 67601
ELEMENT_SET_NO = 999
REV_AT_EPOCH   = 337
BSTAR          = -.16037138E-3
MEAN_MOTION_DOT = -.30801E-3
MEAN_MOTION_DDOT = 0

CCSDS_OMM_VERS = 2.0
CREATION_DATE  = 
ORIGINATOR     = 

OBJECT_NAME    = STARLINK-36631
OBJECT_ID      = 2026-018P
CENTER_NAME    = EARTH
REF_FRAME      = TEME
TIME_SYSTEM    = UTC
MEAN_ELEMENT_THEORY = SGP/SGP4

EPOCH          = 2026-02-12T22:00:03.000096
MEAN_MOTION    = 15.80837213
ECCENTRICITY   = .00015393
INCLINATION    = 97.2849
RA_OF_ASC_NODE = 108.4846
ARG_OF_PERICENTER = 104.7243
MEAN_ANOMALY   = 14.8446

EPHEMERIS_TYPE = 0
CLASSIFICATION_TYPE = U
NORAD_CAT_ID   = 67602
ELEMENT_SET_NO = 999
REV_AT_EPOCH   = 336
BSTAR          = -.18269257E-3
MEAN_MOTION_DOT = -.35031E-3
MEAN_MOTION_DDOT = 0

CCSDS_OMM_VERS = 2.0
CREATION_DATE  = 
ORIGINATOR     = 

OBJECT_NAME    = STARLINK-36626
OBJECT_ID      = 2026-018Q
CENTER_NAME    = EARTH
REF_FRAME      = TEME
TIME_SYSTEM    = UTC
MEAN_ELEMENT_THEORY = SGP/SGP4

EPOCH          = 2026-02-12T22:00:03.000096
MEAN_MOTION    = 15.80818741
ECCENTRICITY   = .00015649
INCLINATION    = 97.2849
RA_OF_ASC_NODE = 108.4919
ARG_OF_PERICENTER = 67.5312
MEAN_ANOMALY   = 70.0369

EPHEMERIS_TYPE = 0
CLASSIFICATION_TYPE = U
NORAD_CAT_ID   = 67603
ELEMENT_SET_NO = 999
REV_AT_EPOCH   = 336
BSTAR          = .12864322E-4
MEAN_MOTION_DOT = .2323E-4
MEAN_MOTION_DDOT = 0

CCSDS_OMM_VERS = 2.0
CREATION_DATE  = 
ORIGINATOR     = 

OBJECT_NAME    = STARLINK-36605
OBJECT_ID      = 2026-018R
CENTER_NAME    = EARTH
REF_FRAME      = TEME
TIME_SYSTEM    = UTC
MEAN_ELEMENT_THEORY = SGP/SGP4

EPOCH          = 2026-02-12T22:00:03.000096
MEAN_MOTION    = 15.77395550
ECCENTRICITY   = .0001894
INCLINATION    = 97.2846
RA_OF_ASC_NODE = 108.4874
ARG_OF_PERICENTER = 61.7591
MEAN_ANOMALY   = 65.8799

EPHEMERIS_TYPE = 0
CLASSIFICATION_TYPE = U
NORAD_CAT_ID   = 67604
ELEMENT_SET_NO = 999
REV_AT_EPOCH   = 336
BSTAR          = -.13975828E-1
MEAN_MOTION_DOT = -.1988886E-1
MEAN_MOTION_DDOT = 0

CCSDS_OMM_VERS = 2.0
CREATION_DATE  = 
ORIGINATOR     = 

OBJECT_NAME    = STARLINK-36281
OBJECT_ID      = 2026-018S
CENTER_NAME    = EARTH
REF_FRAME      = TEME
TIME_SYSTEM    = UTC
MEAN_ELEMENT_THEORY = SGP/SGP4

EPOCH          = 2026-02-12T22:00:03.000096
MEAN_MOTION    = 15.80825816
ECCENTRICITY   = .00015544
INCLINATION    = 97.2852
RA_OF_ASC_NODE = 108.4860
ARG_OF_PERICENTER = 86.7628
MEAN_ANOMALY   = 39.8919

EPHEMERIS_TYPE = 0
CLASSIFICATION_TYPE = U
NORAD_CAT_ID   = 67605
ELEMENT_SET_NO = 999
REV_AT_EPOCH   = 341
BSTAR          = .52574653E-4
MEAN_MOTION_DOT = .9945E-4
MEAN_MOTION_DDOT = 0

CCSDS_OMM_VERS = 2.0
CREATION_DATE  = 
ORIGINATOR     = 

OBJECT_NAME    = STARLINK-35843
OBJECT_ID      = 2026-018T
CENTER_NAME    = EARTH
REF_FRAME      = TEME
TIME_SYSTEM    = UTC
MEAN_ELEMENT_THEORY = SGP/SGP4

EPOCH          = 2026-02-12T22:00:03.000096
MEAN_MOTION    = 15.81158883
ECCENTRICITY   = .00019608
INCLINATION    = 97.2853
RA_OF_ASC_NODE = 108.4925
ARG_OF_PERICENTER = 103.4185
MEAN_ANOMALY   = 39.7667

EPHEMERIS_TYPE = 0
CLASSIFICATION_TYPE = U
NORAD_CAT_ID   = 67606
ELEMENT_SET_NO = 999
REV_AT_EPOCH   = 342
BSTAR          = -.59379125E-2
MEAN_MOTION_DOT = -.1027826E-1
MEAN_MOTION_DDOT = 0

CCSDS_OMM_VERS = 2.0
CREATION_DATE  = 
ORIGINATOR     = 

OBJECT_NAME    = STARLINK-36351
OBJECT_ID      = 2026-018U
CENTER_NAME    = EARTH
REF_FRAME      = TEME
TIME_SYSTEM    = UTC
MEAN_ELEMENT_THEORY = SGP/SGP4

EPOCH          = 2026-02-12T22:00:03.000096
MEAN_MOTION    = 15.80791533
ECCENTRICITY   = .00005618
INCLINATION    = 97.2850
RA_OF_ASC_NODE = 108.4967
ARG_OF_PERICENTER = 144.6438
MEAN_ANOMALY   = 3.6842

EPHEMERIS_TYPE = 0
CLASSIFICATION_TYPE = U
NORAD_CAT_ID   = 67607
ELEMENT_SET_NO = 999
REV_AT_EPOCH   = 342
BSTAR          = .10539529E-3
MEAN_MOTION_DOT = .20069E-3
MEAN_MOTION_DDOT = 0

CCSDS_OMM_VERS = 2.0
CREATION_DATE  = 
ORIGINATOR     = 

OBJECT_NAME    = STARLINK-36411
OBJECT_ID      = 2026-018V
CENTER_NAME    = EARTH
REF_FRAME      = TEME
TIME_SYSTEM    = UTC
MEAN_ELEMENT_THEORY = SGP/SGP4

EPOCH          = 2026-02-12T22:00:03.000096
MEAN_MOTION    = 15.80852613
ECCENTRICITY   = .00013882
INCLINATION    = 97.2846
RA_OF_ASC_NODE = 108.4972
ARG_OF_PERICENTER = 83.1211
MEAN_ANOMALY   = 72.8705

EPHEMERIS_TYPE = 0
CLASSIFICATION_TYPE = U
NORAD_CAT_ID   = 67608
ELEMENT_SET_NO = 999
REV_AT_EPOCH   = 341
BSTAR          = -.19165206E-3
MEAN_MOTION_DOT = -.3676E-3
MEAN_MOTION_DDOT = 0

CCSDS_OMM_VERS = 2.0
CREATION_DATE  = 
ORIGINATOR     = 

OBJECT_NAME    = STARLINK-36312
OBJECT_ID      = 2026-018W
CENTER_NAME    = EARTH
REF_FRAME      = TEME
TIME_SYSTEM    = UTC
MEAN_ELEMENT_THEORY = SGP/SGP4

EPOCH          = 2026-02-12T22:00:03.000096
MEAN_MOTION    = 15.80851350
ECCENTRICITY   = .00014418
INCLINATION    = 97.2846
RA_OF_ASC_NODE = 108.5010
ARG_OF_PERICENTER = 73.2294
MEAN_ANOMALY   = 89.5158

EPHEMERIS_TYPE = 0
CLASSIFICATION_TYPE = U
NORAD_CAT_ID   = 67609
ELEMENT_SET_NO = 999
REV_AT_EPOCH   = 342
BSTAR          = -.32292653E-4
MEAN_MOTION_DOT = -.6333E-4
MEAN_MOTION_DDOT = 0

CCSDS_OMM_VERS = 2.0
CREATION_DATE  = 
ORIGINATOR     = 

OBJECT_NAME    = STARLINK-36387
OBJECT_ID      = 2026-018X
CENTER_NAME    = EARTH
REF_FRAME      = TEME
TIME_SYSTEM    = UTC
MEAN_ELEMENT_THEORY = SGP/SGP4

EPOCH          = 2026-02-12T22:00:03.000096
MEAN_MOTION    = 15.80816346
ECCENTRICITY   = .0001399
INCLINATION    = 97.2845
RA_OF_ASC_NODE = 108.5033
ARG_OF_PERICENTER = 94.6609
MEAN_ANOMALY   = 76.2958

EPHEMERIS_TYPE = 0
CLASSIFICATION_TYPE = U
NORAD_CAT_ID   = 67610
ELEMENT_SET_NO = 999
REV_AT_EPOCH   = 342
BSTAR          = .11732792E-3
MEAN_MOTION_DOT = .2239E-3
MEAN_MOTION_DDOT = 0

